[{"OBJECT_NAME":"STARLINK-36259","OBJECT_ID":"2025-299E","EPOCH":"2026-03-09T22:00:01.999584","MEAN_MOTION":15.37963448,"ECCENTRICITY":0.00013295,"INCLINATION":43.0007,"RA_OF_ASC_NODE":167.5121,"ARG_OF_PERICENTER":271.8286,"MEAN_ANOMALY":77.0727,"EPHEMERIS_TYPE":0,"CLASSIFICATION_TYPE":"U","NORAD_CAT_ID":67106,"ELEMENT_SET_NO":999,"REV_AT_EPOCH":590,"BSTAR":-0.06132752,"MEAN_MOTION_DOT":-0.02109639,"MEAN_MOTION_DDOT":0},{"OBJECT_NAME":"CZ-4C R\/B","OBJECT_ID":"2013-037D","EPOCH":"2026-03-09T18:06:56.075616","MEAN_MOTION":15.35625196,"ECCENTRICITY":0.00667653,"INCLINATION":97.9623,"RA_OF_ASC_NODE":344.221,"ARG_OF_PERICENTER":268.5523,"MEAN_ANOMALY":90.807,"EPHEMERIS_TYPE":0,"CLASSIFICATION_TYPE":"U","NORAD_CAT_ID":39211,"ELEMENT_SET_NO":999,"REV_AT_EPOCH":69561,"BSTAR":0.000391022,"MEAN_MOTION_DOT":0.00014492,"MEAN_MOTION_DDOT":0}]
